OBJECT_NAME,OBJECT_ID,EPOCH,MEAN_MOTION,ECCENTRICITY,INCLINATION,RA_OF_ASC_NODE,ARG_OF_PERICENTER,MEAN_ANOMALY,EPHEMERIS_TYPE,CLASSIFICATION_TYPE,NORAD_CAT_ID,ELEMENT_SET_NO,REV_AT_EPOCH,BSTAR,MEAN_MOTION_DOT,MEAN_MOTION_DDOT
KUZGTU 1 (RS47S),2023-091AV,2026-07-10T20:07:03.326016,15.30406457,.0010544,97.5057,256.5656,21.6805,338.4880,0,U,57217,999,16799,.24375E-3,.71E-4,0
SONATE-2,2024-043Q,2026-07-09T09:40:01.684992,15.60482785,.00067809,97.5552,342.1927,123.5255,236.6650,0,U,59112,999,13135,.44852354E-3,.3693E-3,0
MESAT1,2024-125G,2026-07-10T12:22:18.062112,15.65989421,.0010995,97.2265,49.5713,127.0429,233.1839,0,U,60209,999,11321,.52771E-3,.54117E-3,0
OOV-CUBE (TUBSAT-30),2024-128F,2026-07-09T14:40:40.950912,15.02859618,.00418074,61.9941,147.3745,138.6970,221.7297,0,U,60240,999,10948,.11248636E-3,.1327E-4,0
COLIBRI-S (RS67S),2024-199M,2026-07-10T18:46:20.055648,15.48722513,.0008419,97.2969,65.8636,177.7870,182.3419,0,U,61746,999,14106,.29657E-3,.15831E-3,0
HORS 3 (RS81S),2024-199U,2026-07-10T18:12:18.833184,15.56677587,.0006588,97.2948,68.0932,169.6495,190.4897,0,U,61753,999,14122,.4028E-3,.28703E-3,0
HORS 4 (RS82S),2024-199V,2026-07-10T18:31:06.753216,15.62053653,.0006535,97.2892,69.4706,160.9736,199.1768,0,U,61754,999,14132,.50975E-3,.4464E-3,0
SIT-2086,2024-199AF,2026-07-10T18:22:16.175136,15.54789831,.0007714,97.2907,68.4947,158.1486,202.0098,0,U,61764,999,13809,.43554E-3,.28972E-3,0
HYPERVIEW 1G (RS66S),2024-199AP,2026-07-10T18:10:39.702144,15.83806028,.0008133,97.2811,72.7919,156.1713,203.9935,0,U,61772,999,13839,.75966E-3,.170622E-2,0
ALTAIR (RS65S),2024-199AW,2026-07-10T17:47:14.230752,15.37448340,.0011554,97.3007,60.9402,213.4514,146.6002,0,U,61779,999,14073,.16734E-3,.6075E-4,0
ASRTU-1 (AO-123),2024-199AY,2026-07-10T18:00:39.070944,15.36012386,.0012541,97.2977,60.2107,217.6050,142.4318,0,U,61781,999,13754,.14868E-3,.5144E-4,0
SAMSAT-IONOSPHERE (RS75S),2024-199BB,2026-07-10T17:58:32.943360,15.59813743,.0008707,97.2912,68.2228,174.6672,185.4679,0,U,61784,999,14123,.48963E-3,.39352E-3,0
RTU MIREA 1 (RS51S),2024-199BC,2026-07-10T18:44:43.620288,15.63875019,.0008835,97.2902,69.2186,169.3082,190.8366,0,U,61785,999,13815,.51318E-3,.48308E-3,0
TEVEL2-4,2025-052D,2026-07-10T04:38:44.369376,15.35449106,.00039482,97.3878,87.6327,61.8463,298.3179,0,U,63213,999,7364,.43632379E-3,.14962E-3,0
TEVEL2-5,2025-052E,2026-07-08T15:39:31.999680,15.35218873,.00041301,97.3873,86.0291,66.2017,293.9660,0,U,63214,999,7340,.41324257E-3,.14062E-3,0
TEVEL2-6,2025-052F,2026-07-09T18:33:36.497376,15.35215103,.00039681,97.3877,87.1376,66.9512,293.2149,0,U,63215,999,7357,.40183524E-3,.13669E-3,0
TEVEL2-1,2025-052H,2026-07-10T03:16:29.090784,15.34661443,.00045441,97.3849,87.0975,70.7123,289.4612,0,U,63217,999,7361,.41736513E-3,.13953E-3,0
TEVEL2-3,2025-052J,2026-07-10T03:07:30.304704,15.34723182,.0004351,97.3855,87.1167,70.9758,289.1956,0,U,63218,999,7361,.42646563E-3,.14288E-3,0
TEVEL2-2,2025-052K,2026-07-08T12:09:23.175072,15.34625790,.00047047,97.3852,85.4689,73.9445,286.2316,0,U,63219,999,7336,.39012445E-3,.13021E-3,0
OTP-2,2025-052AB,2026-07-10T00:12:33.329376,15.24294167,.00082851,97.3845,83.0996,85.2441,274.9742,0,U,63235,999,7334,.20316794E-3,.4897E-4,0
TEVEL2-9,2025-052AD,2026-07-08T15:25:07.851072,15.32589963,.0008135,97.3915,84.9331,74.7614,285.4527,0,U,63237,999,7331,.40917582E-3,.12819E-3,0
TEVEL2-7,2025-052AE,2026-07-10T04:32:59.610912,15.32316838,.00081131,97.3916,86.3844,70.6431,289.5687,0,U,63238,999,7354,.41238455E-3,.12809E-3,0
TEVEL2-8,2025-052AF,2026-07-08T16:42:19.133856,15.32263765,.00081757,97.3912,84.8694,75.3495,284.8653,0,U,63239,999,7331,.37502066E-3,.11621E-3,0
INNOSAT 16 (RS92S7),2025-155C,2026-07-10T17:54:12.558816,15.25708527,.0012459,97.4574,158.8041,101.6650,258.5987,0,U,64878,999,8426,.15425E-3,.3865E-4,0
GEOSCAN 6 (RS92S6),2025-155D,2026-07-10T18:51:35.446752,15.30599456,.0010023,97.4562,160.4376,94.4319,265.8067,0,U,64879,999,8437,.24026E-3,.7039E-4,0
GEOSCAN 1 (RS92S1),2025-155E,2026-07-10T18:41:22.748064,15.31242154,.000996,97.4559,160.5996,94.7288,265.5091,0,U,64880,999,8438,.2567E-3,.7679E-4,0
239ALFEROV (RS61S),2025-155F,2026-07-10T18:41:26.966112,15.33590239,.0009659,97.4558,161.2430,94.2383,265.9963,0,U,64881,999,8442,.31484E-3,.1016E-3,0
GEOSCAN 2 (RS92S2),2025-155Q,2026-07-10T18:26:25.669824,15.31500442,.0009203,97.4558,160.7509,84.5805,275.6486,0,U,64890,999,8439,.2456E-3,.7401E-4,0
GEOSCAN 5 (RS92S5),2025-155R,2026-07-10T18:18:41.622336,15.33896511,.0008658,97.4550,161.3734,98.3129,261.9096,0,U,64891,999,8443,.29307E-3,.9541E-4,0
GEOSCAN 4 (RS92S4),2025-155S,2026-07-10T17:52:24.385152,15.34062883,.0008612,97.4555,161.4105,98.4903,261.7316,0,U,64892,999,8443,.31549E-3,.10332E-3,0
