KUZGTU 1 (RS47S)        
1 57217U 23091AV  26191.83823294  .00007100  00000+0  24375-3 0  9996
2 57217  97.5057 256.5656 0010544  21.6805 338.4880 15.30406457167999
SONATE-2                
1 59112U 24043Q   26190.40279728  .00036930  00000+0  44852-3 0  9994
2 59112  97.5552 342.1927 0006780 123.5255 236.6650 15.60482785131352
MESAT1                  
1 60209U 24125G   26191.51548683  .00054117  00000+0  52771-3 0  9992
2 60209  97.2265  49.5713 0010995 127.0429 233.1839 15.65989421113215
OOV-CUBE (TUBSAT-30)    
1 60240U 24128F   26190.61158508  .00001327  00000+0  11249-3 0  9993
2 60240  61.9941 147.3745 0041807 138.6970 221.7297 15.02859618109486
COLIBRI-S (RS67S)       
1 61746U 24199M   26191.78217657  .00015831  00000+0  29657-3 0  9990
2 61746  97.2969  65.8636 0008419 177.7870 182.3419 15.48722513141069
HORS 3 (RS81S)          
1 61753U 24199U   26191.75855131  .00028703  00000+0  40280-3 0  9997
2 61753  97.2948  68.0932 0006588 169.6495 190.4897 15.56677587141223
HORS 4 (RS82S)          
1 61754U 24199V   26191.77160594  .00044640  00000+0  50975-3 0  9992
2 61754  97.2892  69.4706 0006535 160.9736 199.1768 15.62053653141323
SIT-2086                
1 61764U 24199AF  26191.76546499  .00028972  00000+0  43554-3 0  9999
2 61764  97.2907  68.4947 0007714 158.1486 202.0098 15.54789831138093
HYPERVIEW 1G (RS66S)    
1 61772U 24199AP  26191.75740396  .00170622  00000+0  75966-3 0  9991
2 61772  97.2811  72.7919 0008133 156.1713 203.9935 15.83806028138393
ALTAIR (RS65S)          
1 61779U 24199AW  26191.74113693  .00006075  00000+0  16734-3 0  9999
2 61779  97.3007  60.9402 0011554 213.4514 146.6002 15.37448340140738
ASRTU-1 (AO-123)        
1 61781U 24199AY  26191.75045221  .00005144  00000+0  14868-3 0  9996
2 61781  97.2977  60.2107 0012541 217.6050 142.4318 15.36012386137544
SAMSAT-IONOSPHERE (RS7*)
1 61784U 24199BB  26191.74899240  .00039352  00000+0  48963-3 0  9997
2 61784  97.2912  68.2228 0008707 174.6672 185.4679 15.59813743141238
RTU MIREA 1 (RS51S)     
1 61785U 24199BC  26191.78106042  .00048308  00000+0  51318-3 0  9992
2 61785  97.2902  69.2186 0008835 169.3082 190.8366 15.63875019138159
TEVEL2-4                
1 63213U 25052D   26191.19356909  .00014962  00000+0  43632-3 0  9992
2 63213  97.3878  87.6327 0003948  61.8463 298.3179 15.35449106 73641
TEVEL2-5                
1 63214U 25052E   26189.65245370  .00014062  00000+0  41324-3 0  9997
2 63214  97.3873  86.0291 0004130  66.2017 293.9660 15.35218873 73403
TEVEL2-6                
1 63215U 25052F   26190.77333909  .00013669  00000+0  40184-3 0  9994
2 63215  97.3877  87.1376 0003968  66.9512 293.2149 15.35215103 73575
TEVEL2-1                
1 63217U 25052H   26191.13644781  .00013953  00000+0  41737-3 0  9991
2 63217  97.3849  87.0975 0004544  70.7123 289.4612 15.34661443 73610
TEVEL2-3                
1 63218U 25052J   26191.13021186  .00014288  00000+0  42647-3 0  9993
2 63218  97.3855  87.1167 0004351  70.9758 289.1956 15.34723182 73611
TEVEL2-2                
1 63219U 25052K   26189.50651823  .00013021  00000+0  39012-3 0  9995
2 63219  97.3852  85.4689 0004704  73.9445 286.2316 15.34625790 73363
OTP-2                   
1 63235U 25052AB  26191.00871909  .00004897  00000+0  20317-3 0  9999
2 63235  97.3845  83.0996 0008285  85.2441 274.9742 15.24294167 73342
TEVEL2-9                
1 63237U 25052AD  26189.64245198  .00012819  00000+0  40918-3 0  9995
2 63237  97.3915  84.9331 0008135  74.7614 285.4527 15.32589963 73319
TEVEL2-7                
1 63238U 25052AE  26191.18957883  .00012809  00000+0  41238-3 0  9994
2 63238  97.3916  86.3844 0008113  70.6431 289.5687 15.32316838 73540
TEVEL2-8                
1 63239U 25052AF  26189.69605479  .00011621  00000+0  37502-3 0  9999
2 63239  97.3912  84.8694 0008175  75.3495 284.8653 15.32263765 73319
INNOSAT 16 (RS92S7)     
1 64878U 25155C   26191.74597869  .00003865  00000+0  15425-3 0  9996
2 64878  97.4574 158.8041 0012459 101.6650 258.5987 15.25708527 84264
GEOSCAN 6 (RS92S6)      
1 64879U 25155D   26191.78582693  .00007039  00000+0  24026-3 0  9994
2 64879  97.4562 160.4376 0010023  94.4319 265.8067 15.30599456 84375
GEOSCAN 1 (RS92S1)      
1 64880U 25155E   26191.77873551  .00007679  00000+0  25670-3 0  9997
2 64880  97.4559 160.5996 0009960  94.7288 265.5091 15.31242154 84384
239ALFEROV (RS61S)      
1 64881U 25155F   26191.77878433  .00010160  00000+0  31484-3 0  9991
2 64881  97.4558 161.2430 0009659  94.2383 265.9963 15.33590239 84420
GEOSCAN 2 (RS92S2)      
1 64890U 25155Q   26191.76835266  .00007401  00000+0  24560-3 0  9998
2 64890  97.4558 160.7509 0009203  84.5805 275.6486 15.31500442 84396
GEOSCAN 5 (RS92S5)      
1 64891U 25155R   26191.76298174  .00009541  00000+0  29307-3 0  9991
2 64891  97.4550 161.3734 0008658  98.3129 261.9096 15.33896511 84438
GEOSCAN 4 (RS92S4)      
1 64892U 25155S   26191.74472668  .00010332  00000+0  31549-3 0  9993
2 64892  97.4555 161.4105 0008612  98.4903 261.7316 15.34062883 84439
